{
  "type": "FeatureCollection",
  "features": [
    {
      "type": "Feature",
      "properties": {
        "norad_id": 38867,
        "name": "INTELSAT 23 (IS-23)",
        "group": "intelsat",
        "lat": 0.014382762885597438,
        "lon": -171.622302961465,
        "alt_km": 35786.37639518512,
        "timestamp": "2025-12-25T09:48:51.953960+00:00",
        "meta_object_name": "INTELSAT 23 (IS-23)",
        "meta_object_id": "2012-057A",
        "meta_epoch": "2025-12-25T04:25:47.526240",
        "meta_mean_motion": 1.00274029,
        "meta_eccentricity": 5.24e-05,
        "meta_inclination": 0.0134,
        "meta_ra_of_asc_node": 70.2161,
        "meta_arg_of_pericenter": 232.2564,
        "meta_mean_anomaly": 164.926,
        "meta_ephemeris_type": 0,
        "meta_classification_type": "U",
        "meta_norad_cat_id": 38867,
        "meta_element_set_no": 999,
        "meta_rev_at_epoch": 4821,
        "meta_bstar": 0,
        "meta_mean_motion_dot": -2.63e-06,
        "meta_mean_motion_ddot": 0,
        "tle_line1": "1 38867U 12057A   25359.18457785 -.00000263  00000+0  00000+0 0  9996",
        "tle_line2": "2 38867   0.0134  70.2161 0000524 232.2564 164.9260  1.00274029 48212"
      },
      "geometry": {
        "type": "Point",
        "coordinates": [
          -171.622302961465,
          0.014382762885597438
        ]
      }
    },
    {
      "type": "Feature",
      "properties": {
        "norad_id": 39360,
        "name": "FM-6",
        "group": "intelsat",
        "lat": 0.027362983813088604,
        "lon": 125.17859156624161,
        "alt_km": 35779.34137552555,
        "timestamp": "2025-12-25T09:48:51.953971+00:00",
        "meta_object_name": "FM-6",
        "meta_object_id": "2013-058A",
        "meta_epoch": "2025-12-25T02:39:08.527104",
        "meta_mean_motion": 1.00272868,
        "meta_eccentricity": 0.0002682,
        "meta_inclination": 0.0181,
        "meta_ra_of_asc_node": 75.0294,
        "meta_arg_of_pericenter": 105.4068,
        "meta_mean_anomaly": 197.0479,
        "meta_ephemeris_type": 0,
        "meta_classification_type": "U",
        "meta_norad_cat_id": 39360,
        "meta_element_set_no": 999,
        "meta_rev_at_epoch": 4432,
        "meta_bstar": 0,
        "meta_mean_motion_dot": 4e-08,
        "meta_mean_motion_ddot": 0,
        "tle_line1": "1 39360U 13058A   25359.11051536  .00000004  00000+0  00000+0 0  9996",
        "tle_line2": "2 39360   0.0181  75.0294 0002682 105.4068 197.0479  1.00272868 44326"
      },
      "geometry": {
        "type": "Point",
        "coordinates": [
          125.17859156624161,
          0.027362983813088604
        ]
      }
    },
    {
      "type": "Feature",
      "properties": {
        "norad_id": 40271,
        "name": "INTELSAT 30 (IS-30)",
        "group": "intelsat",
        "lat": 0.02933032117098833,
        "lon": 146.32979618291088,
        "alt_km": 35783.10968494061,
        "timestamp": "2025-12-25T09:48:51.953983+00:00",
        "meta_object_name": "INTELSAT 30 (IS-30)",
        "meta_object_id": "2014-062A",
        "meta_epoch": "2025-12-24T22:55:07.150368",
        "meta_mean_motion": 1.00269678,
        "meta_eccentricity": 0.0001511,
        "meta_inclination": 0.0145,
        "meta_ra_of_asc_node": 31.8875,
        "meta_arg_of_pericenter": 58.3804,
        "meta_mean_anomaly": 252.1734,
        "meta_ephemeris_type": 0,
        "meta_classification_type": "U",
        "meta_norad_cat_id": 40271,
        "meta_element_set_no": 999,
        "meta_rev_at_epoch": 504,
        "meta_bstar": 0,
        "meta_mean_motion_dot": -1.29e-06,
        "meta_mean_motion_ddot": 0,
        "tle_line1": "1 40271U 14062A   25358.95494387 -.00000129  00000+0  00000+0 0  9990",
        "tle_line2": "2 40271   0.0145  31.8875 0001511  58.3804 252.1734  1.00269678  5046"
      },
      "geometry": {
        "type": "Point",
        "coordinates": [
          146.32979618291088,
          0.02933032117098833
        ]
      }
    },
    {
      "type": "Feature",
      "properties": {
        "norad_id": 40333,
        "name": "DIRECTV 14",
        "group": "intelsat",
        "lat": 0.017548944280478252,
        "lon": 142.18957200162893,
        "alt_km": 35783.9410387283,
        "timestamp": "2025-12-25T09:48:51.953995+00:00",
        "meta_object_name": "DIRECTV 14",
        "meta_object_id": "2014-078B",
        "meta_epoch": "2025-12-24T12:37:43.773312",
        "meta_mean_motion": 1.00279829,
        "meta_eccentricity": 3.885e-05,
        "meta_inclination": 0.0184,
        "meta_ra_of_asc_node": 340.4706,
        "meta_arg_of_pericenter": 254.7884,
        "meta_mean_anomaly": 308.2619,
        "meta_ephemeris_type": 0,
        "meta_classification_type": "U",
        "meta_norad_cat_id": 40333,
        "meta_element_set_no": 999,
        "meta_rev_at_epoch": 4029,
        "meta_bstar": 0,
        "meta_mean_motion_dot": -1.06e-06,
        "meta_mean_motion_ddot": 0,
        "tle_line1": "1 40333U 14078B   25358.52620108 -.00000106  00000+0  00000+0 0  9996",
        "tle_line2": "2 40333   0.0184 340.4706 0000388 254.7884 308.2619  1.00279829 40291"
      },
      "geometry": {
        "type": "Point",
        "coordinates": [
          142.18957200162893,
          0.017548944280478252
        ]
      }
    },
    {
      "type": "Feature",
      "properties": {
        "norad_id": 40663,
        "name": "DIRECTV 15",
        "group": "intelsat",
        "lat": 0.03680672995945678,
        "lon": 138.47549466705712,
        "alt_km": 35786.70589266428,
        "timestamp": "2025-12-25T09:48:51.954006+00:00",
        "meta_object_name": "DIRECTV 15",
        "meta_object_id": "2015-026A",
        "meta_epoch": "2025-12-25T03:26:51.817056",
        "meta_mean_motion": 1.00266089,
        "meta_eccentricity": 2.88e-05,
        "meta_inclination": 0.0214,
        "meta_ra_of_asc_node": 23.9165,
        "meta_arg_of_pericenter": 151.045,
        "meta_mean_anomaly": 227.766,
        "meta_ephemeris_type": 0,
        "meta_classification_type": "U",
        "meta_norad_cat_id": 40663,
        "meta_element_set_no": 999,
        "meta_rev_at_epoch": 3871,
        "meta_bstar": 0,
        "meta_mean_motion_dot": 0,
        "meta_mean_motion_ddot": 0,
        "tle_line1": "1 40663U 15026A   25359.14365529  .00000000  00000+0  00000+0 0  9990",
        "tle_line2": "2 40663   0.0214  23.9165 0000288 151.0450 227.7660  1.00266089 38719"
      },
      "geometry": {
        "type": "Point",
        "coordinates": [
          138.47549466705712,
          0.03680672995945678
        ]
      }
    },
    {
      "type": "Feature",
      "properties": {
        "norad_id": 40664,
        "name": "SKY MEXICO-1",
        "group": "intelsat",
        "lat": 0.015461205714219594,
        "lon": 162.58455420985572,
        "alt_km": 35793.16961000726,
        "timestamp": "2025-12-25T09:48:51.954018+00:00",
        "meta_object_name": "SKY MEXICO-1",
        "meta_object_id": "2015-026B",
        "meta_epoch": "2025-12-25T02:52:23.941056",
        "meta_mean_motion": 1.00270035,
        "meta_eccentricity": 0.000254,
        "meta_inclination": 0.0165,
        "meta_ra_of_asc_node": 4.6804,
        "meta_arg_of_pericenter": 285.7162,
        "meta_mean_anomaly": 127.8178,
        "meta_ephemeris_type": 0,
        "meta_classification_type": "U",
        "meta_norad_cat_id": 40664,
        "meta_element_set_no": 999,
        "meta_rev_at_epoch": 3870,
        "meta_bstar": 0,
        "meta_mean_motion_dot": -2.13e-06,
        "meta_mean_motion_ddot": 0,
        "tle_line1": "1 40664U 15026B   25359.11972154 -.00000213  00000+0  00000+0 0  9993",
        "tle_line2": "2 40664   0.0165   4.6804 0002540 285.7162 127.8178  1.00270035 38708"
      },
      "geometry": {
        "type": "Point",
        "coordinates": [
          162.58455420985572,
          0.015461205714219594
        ]
      }
    },
    {
      "type": "Feature",
      "properties": {
        "norad_id": 40874,
        "name": "INTELSAT 34 (IS-34)",
        "group": "intelsat",
        "lat": -0.008436794597175992,
        "lon": -174.11847991587143,
        "alt_km": 35784.23898810423,
        "timestamp": "2025-12-25T09:48:51.954029+00:00",
        "meta_object_name": "INTELSAT 34 (IS-34)",
        "meta_object_id": "2015-039A",
        "meta_epoch": "2025-12-24T19:41:03.235776",
        "meta_mean_motion": 1.00269915,
        "meta_eccentricity": 6.33e-05,
        "meta_inclination": 0.0112,
        "meta_ra_of_asc_node": 321.6205,
        "meta_arg_of_pericenter": 200.7023,
        "meta_mean_anomaly": 171.0333,
        "meta_ephemeris_type": 0,
        "meta_classification_type": "U",
        "meta_norad_cat_id": 40874,
        "meta_element_set_no": 999,
        "meta_rev_at_epoch": 3787,
        "meta_bstar": 0,
        "meta_mean_motion_dot": -2.64e-06,
        "meta_mean_motion_ddot": 0,
        "tle_line1": "1 40874U 15039A   25358.82017634 -.00000264  00000+0  00000+0 0  9996",
        "tle_line2": "2 40874   0.0112 321.6205 0000633 200.7023 171.0333  1.00269915 37870"
      },
      "geometry": {
        "type": "Point",
        "coordinates": [
          -174.11847991587143,
          -0.008436794597175992
        ]
      }
    }
  ]
}